*******************************************************************************
 Revised: April 12, 2021       Solar System Barycenter                        0

 Dynamical point 
 ---------------
 The center of mass for the solar system. See object 10 for Sun ephemeris.
*******************************************************************************


*******************************************************************************
Ephemeris / WWW_USER Mon Feb  7 17:45:36 2022 Pasadena, USA      / Horizons    
*******************************************************************************
Target body name: Solar System Barycenter (0)     {source: DE441}
Center body name: Sun (10)                        {source: DE441}
Center-site name: BODYCENTRIC
*******************************************************************************
Start time      : A.D. 2021-Jan-01 00:08:31.0000 UT      
Stop  time      : A.D. 2021-Dec-31 23:59:31.0000 UT      
Step-size       : 40 minutes
*******************************************************************************
Target pole/equ : MARSIAU                         {East-longitude positive}
Target radii    : 696000.0 x 696000.0 x 696000.0 k{Equator, meridian, pole}    
Center geodetic : 0.00000000,0.00000000,0.0000000 {E-lon(deg),Lat(deg),Alt(km)}
Center cylindric: 0.00000000,0.00000000,0.0000000 {E-lon(deg),Dxy(km),Dz(km)}
Center pole/equ : IAU_SUN                         {East-longitude positive}
Center radii    : 696000.0 x 696000.0 x 696000.0 k{Equator, meridian, pole}    
Target primary  : Sun
Vis. interferer : None
Rel. light bend : Sun                             {source: DE441}
Rel. lght bnd GM: 1.3271E+11 km^3/s^2                                          
Atmos refraction: NO (AIRLESS)
RA format       : HMS
Time format     : CAL 
EOP file        : eop.220206.p220502                                           
EOP coverage    : DATA-BASED 1962-JAN-20 TO 2022-FEB-06. PREDICTS-> 2022-MAY-01
Units conversion: 1 au= 149597870.700 km, c= 299792.458 km/s, 1 day= 86400.0 s 
Table cut-offs 1: Elevation (-90.0deg=NO ),Airmass     n.a.    , Daylight (NO )
Table cut-offs 2: Solar elongation (  0.0,180.0=NO ),Local Hour Angle( 0.0=NO )
Table cut-offs 3: RA/DEC angular rate (     0.0=NO )                           
*******************************************************************************
 Date__(UT)__HR:MN:SS     R.A._____(ICRF)_____DEC             delta      deldot
*******************************************************************************
$$SOE
 2021-Jan-06 04:08:31     21 23 31.51 -16 00 59.5  0.00896744122011   0.0020893
 2021-Jan-06 04:48:31     21 23 31.88 -16 00 57.8  0.00896747473829   0.0020892
 2021-Jan-06 05:28:31     21 23 32.26 -16 00 56.2  0.00896750825452   0.0020891
 2021-Jan-06 06:08:31     21 23 32.64 -16 00 54.6  0.00896754176880   0.0020890
 2021-Jan-06 06:48:31     21 23 33.01 -16 00 52.9  0.00896757528113   0.0020888
 2021-Jan-06 07:28:31     21 23 33.39 -16 00 51.3  0.00896760879151   0.0020887
 2021-Jan-06 08:08:31     21 23 33.77 -16 00 49.7  0.00896764229994   0.0020886
 2021-Jan-06 08:48:31     21 23 34.14 -16 00 48.1  0.00896767580642   0.0020885
 2021-Jan-06 09:28:31     21 23 34.52 -16 00 46.4  0.00896770931095   0.0020884
 2021-Jan-06 10:08:31     21 23 34.90 -16 00 44.8  0.00896774281352   0.0020882
 2021-Jan-06 10:48:31     21 23 35.27 -16 00 43.2  0.00896777631414   0.0020881
 2021-Jan-06 11:28:31     21 23 35.65 -16 00 41.5  0.00896780981281   0.0020880
 2021-Jan-06 12:08:31     21 23 36.03 -16 00 39.9  0.00896784330952   0.0020879
 2021-Jan-06 12:48:31     21 23 36.40 -16 00 38.3  0.00896787680427   0.0020877
 2021-Jan-06 13:28:31     21 23 36.78 -16 00 36.7  0.00896791029707   0.0020876
 2021-Jan-06 14:08:31     21 23 37.16 -16 00 35.0  0.00896794378791   0.0020875
 2021-Jan-06 14:48:31     21 23 37.53 -16 00 33.4  0.00896797727679   0.0020874
 2021-Jan-06 15:28:31     21 23 37.91 -16 00 31.8  0.00896801076372   0.0020873
 2021-Jan-06 16:08:31     21 23 38.29 -16 00 30.2  0.00896804424868   0.0020871
 2021-Jan-06 16:48:31     21 23 38.66 -16 00 28.5  0.00896807773168   0.0020870
 2021-Jan-06 17:28:31     21 23 39.04 -16 00 26.9  0.00896811121273   0.0020869
 2021-Jan-06 18:08:31     21 23 39.42 -16 00 25.3  0.00896814469181   0.0020868
 2021-Jan-06 18:48:31     21 23 39.79 -16 00 23.6  0.00896817816893   0.0020866
 2021-Jan-06 19:28:31     21 23 40.17 -16 00 22.0  0.00896821164408   0.0020865
 2021-Jan-06 20:08:31     21 23 40.55 -16 00 20.4  0.00896824511727   0.0020864
 2021-Jan-06 20:48:31     21 23 40.92 -16 00 18.8  0.00896827858850   0.0020863
 2021-Jan-06 21:28:31     21 23 41.30 -16 00 17.1  0.00896831205776   0.0020862
 2021-Jan-06 22:08:31     21 23 41.68 -16 00 15.5  0.00896834552506   0.0020860
 2021-Jan-06 22:48:31     21 23 42.05 -16 00 13.9  0.00896837899039   0.0020859
 2021-Jan-06 23:28:31     21 23 42.43 -16 00 12.2  0.00896841245375   0.0020858
 2021-Jan-07 00:08:31     21 23 42.81 -16 00 10.6  0.00896844591514   0.0020857
 2021-Jan-07 00:48:31     21 23 43.18 -16 00 09.0  0.00896847937457   0.0020855
 2021-Jan-07 01:28:31     21 23 43.56 -16 00 07.4  0.00896851283202   0.0020854
 2021-Jan-07 02:08:31     21 23 43.93 -16 00 05.7  0.00896854628751   0.0020853
 2021-Jan-07 02:48:31     21 23 44.31 -16 00 04.1  0.00896857974102   0.0020852
 2021-Jan-07 03:28:31     21 23 44.69 -16 00 02.5  0.00896861319256   0.0020851
 2021-Jan-07 04:08:31     21 23 45.06 -16 00 00.8  0.00896864664213   0.0020849
 2021-Jan-07 04:48:31     21 23 45.44 -15 59 59.2  0.00896868008973   0.0020848
 2021-Jan-07 05:28:31     21 23 45.82 -15 59 57.6  0.00896871353535   0.0020847
 2021-Jan-07 06:08:31     21 23 46.19 -15 59 56.0  0.00896874697900   0.0020846
 2021-Jan-07 06:48:31     21 23 46.57 -15 59 54.3  0.00896878042067   0.0020844
 2021-Jan-07 07:28:31     21 23 46.95 -15 59 52.7  0.00896881386037   0.0020843
 2021-Jan-07 08:08:31     21 23 47.32 -15 59 51.1  0.00896884729809   0.0020842
 2021-Jan-07 08:48:31     21 23 47.70 -15 59 49.4  0.00896888073384   0.0020841
 2021-Jan-07 09:28:31     21 23 48.08 -15 59 47.8  0.00896891416760   0.0020839
 2021-Jan-07 10:08:31     21 23 48.45 -15 59 46.2  0.00896894759939   0.0020838
 2021-Jan-07 10:48:31     21 23 48.83 -15 59 44.6  0.00896898102919   0.0020837
 2021-Jan-07 11:28:31     21 23 49.21 -15 59 42.9  0.00896901445702   0.0020836
 2021-Jan-07 12:08:31     21 23 49.58 -15 59 41.3  0.00896904788287   0.0020835
 2021-Jan-07 12:48:31     21 23 49.96 -15 59 39.7  0.00896908130673   0.0020833
 2021-Jan-07 13:28:31     21 23 50.34 -15 59 38.0  0.00896911472861   0.0020832
 2021-Jan-07 14:08:31     21 23 50.71 -15 59 36.4  0.00896914814851   0.0020831
 2021-Jan-07 14:48:31     21 23 51.09 -15 59 34.8  0.00896918156643   0.0020830
 2021-Jan-07 15:28:31     21 23 51.47 -15 59 33.1  0.00896921498236   0.0020828
 2021-Jan-07 16:08:31     21 23 51.84 -15 59 31.5  0.00896924839630   0.0020827
 2021-Jan-07 16:48:31     21 23 52.22 -15 59 29.9  0.00896928180826   0.0020826
 2021-Jan-07 17:28:31     21 23 52.60 -15 59 28.3  0.00896931521824   0.0020825
 2021-Jan-07 18:08:31     21 23 52.97 -15 59 26.6  0.00896934862622   0.0020823
 2021-Jan-07 18:48:31     21 23 53.35 -15 59 25.0  0.00896938203222   0.0020822
 2021-Jan-07 19:28:31     21 23 53.73 -15 59 23.4  0.00896941543623   0.0020821
 2021-Jan-07 20:08:31     21 23 54.10 -15 59 21.7  0.00896944883825   0.0020820
 2021-Jan-07 20:48:31     21 23 54.48 -15 59 20.1  0.00896948223828   0.0020818
 2021-Jan-07 21:28:31     21 23 54.86 -15 59 18.5  0.00896951563632   0.0020817
 2021-Jan-07 22:08:31     21 23 55.23 -15 59 16.9  0.00896954903237   0.0020816
 2021-Jan-07 22:48:31     21 23 55.61 -15 59 15.2  0.00896958242642   0.0020815
 2021-Jan-07 23:28:31     21 23 55.99 -15 59 13.6  0.00896961581849   0.0020813
 2021-Jan-08 00:08:31     21 23 56.36 -15 59 12.0  0.00896964920856   0.0020812
 2021-Jan-08 00:48:31     21 23 56.74 -15 59 10.3  0.00896968259663   0.0020811
 2021-Jan-08 01:28:31     21 23 57.12 -15 59 08.7  0.00896971598271   0.0020810
 2021-Jan-08 02:08:31     21 23 57.49 -15 59 07.1  0.00896974936680   0.0020808
 2021-Jan-08 02:48:31     21 23 57.87 -15 59 05.4  0.00896978274889   0.0020807
 2021-Jan-08 03:28:31     21 23 58.25 -15 59 03.8  0.00896981612898   0.0020806
 2021-Jan-08 04:08:31     21 23 58.62 -15 59 02.2  0.00896984950707   0.0020805
 2021-Jan-08 04:48:31     21 23 59.00 -15 59 00.6  0.00896988288317   0.0020804
 2021-Jan-08 05:28:31     21 23 59.38 -15 58 58.9  0.00896991625727   0.0020802
 2021-Jan-08 06:08:31     21 23 59.75 -15 58 57.3  0.00896994962936   0.0020801
 2021-Jan-08 06:48:31     21 24 00.13 -15 58 55.7  0.00896998299946   0.0020800
 2021-Jan-08 07:28:31     21 24 00.51 -15 58 54.0  0.00897001636756   0.0020799
 2021-Jan-08 08:08:31     21 24 00.88 -15 58 52.4  0.00897004973365   0.0020797
 2021-Jan-08 08:48:31     21 24 01.26 -15 58 50.8  0.00897008309774   0.0020796
 2021-Jan-08 09:28:31     21 24 01.64 -15 58 49.1  0.00897011645983   0.0020795
 2021-Jan-08 10:08:31     21 24 02.01 -15 58 47.5  0.00897014981991   0.0020794
 2021-Jan-08 10:48:31     21 24 02.39 -15 58 45.9  0.00897018317799   0.0020792
 2021-Jan-08 11:28:31     21 24 02.76 -15 58 44.2  0.00897021653407   0.0020791
 2021-Jan-08 12:08:31     21 24 03.14 -15 58 42.6  0.00897024988814   0.0020790
 2021-Jan-08 12:48:31     21 24 03.52 -15 58 41.0  0.00897028324020   0.0020789
 2021-Jan-08 13:28:31     21 24 03.89 -15 58 39.4  0.00897031659025   0.0020787
 2021-Jan-08 14:08:31     21 24 04.27 -15 58 37.7  0.00897034993830   0.0020786
 2021-Jan-08 14:48:31     21 24 04.65 -15 58 36.1  0.00897038328434   0.0020785
 2021-Jan-08 15:28:31     21 24 05.02 -15 58 34.5  0.00897041662837   0.0020784
 2021-Jan-08 16:08:31     21 24 05.40 -15 58 32.8  0.00897044997039   0.0020782
 2021-Jan-08 16:48:31     21 24 05.78 -15 58 31.2  0.00897048331039   0.0020781
 2021-Jan-08 17:28:31     21 24 06.15 -15 58 29.6  0.00897051664839   0.0020780
